{
    "links": {
        "self": "http://www.neowsapp.com/rest/v1/neo/3704764?api_key=iIulBulltgU6a56xZRHN4H3l9WmuAYTsLGpBGhQ2"
    },
    "id": "3704764",
    "neo_reference_id": "3704764",
    "name": "(2015 BB92)",
    "designation": "2015 BB92",
    "nasa_jpl_url": "http://ssd.jpl.nasa.gov/sbdb.cgi?sstr=3704764",
    "absolute_magnitude_h": 22.5,
    "estimated_diameter": {
        "kilometers": {
            "estimated_diameter_min": 0.0840533402,
            "estimated_diameter_max": 0.1879489824
        },
        "meters": {
            "estimated_diameter_min": 84.0533402073,
            "estimated_diameter_max": 187.9489824394
        },
        "miles": {
            "estimated_diameter_min": 0.0522283081,
            "estimated_diameter_max": 0.1167860472
        },
        "feet": {
            "estimated_diameter_min": 275.7655606856,
            "estimated_diameter_max": 616.6305395464
        }
    },
    "is_potentially_hazardous_asteroid": false,
    "close_approach_data": [
        {
            "close_approach_date": "2002-01-31",
            "close_approach_date_full": "2002-Jan-31 07:47",
            "epoch_date_close_approach": 1012463220000,
            "relative_velocity": {
                "kilometers_per_second": "16.2872977593",
                "kilometers_per_hour": "58634.2719335304",
                "miles_per_hour": "36433.0563578095"
            },
            "miss_distance": {
                "astronomical": "0.444734057",
                "lunar": "173.001548173",
                "kilometers": "66531267.64365859",
                "miles": "41340612.724084942"
            },
            "orbiting_body": "Earth"
        },
        {
            "close_approach_date": "2008-10-21",
            "close_approach_date_full": "2008-Oct-21 22:53",
            "epoch_date_close_approach": 1224629580000,
            "relative_velocity": {
                "kilometers_per_second": "4.8798515073",
                "kilometers_per_hour": "17567.4654261779",
                "miles_per_hour": "10915.739836616"
            },
            "miss_distance": {
                "astronomical": "1.0868109756",
                "lunar": "422.7694695084",
                "kilometers": "162584607.042381972",
                "miles": "101025390.2065443336"
            },
            "orbiting_body": "Juptr"
        },
        {
            "close_approach_date": "2015-01-18",
            "close_approach_date_full": "2015-Jan-18 16:54",
            "epoch_date_close_approach": 1421600040000,
            "relative_velocity": {
                "kilometers_per_second": "10.8734210938",
                "kilometers_per_hour": "39144.3159376868",
                "miles_per_hour": "24322.7556447255"
            },
            "miss_distance": {
                "astronomical": "0.2127641039",
                "lunar": "82.7652364171",
                "kilometers": "31829056.755898693",
                "miles": "19777658.7658922434"
            },
            "orbiting_body": "Earth"
        }
    ],
    "orbital_data": {
        "orbit_id": "9",
        "orbit_determination_date": "2017-04-06 08:36:13",
        "first_observation_date": "2015-01-15",
        "last_observation_date": "2015-02-20",
        "data_arc_in_days": 36,
        "observations_used": 37,
        "orbit_uncertainty": "6",
        "minimum_orbit_intersection": ".193537",
        "jupiter_tisserand_invariant": "3.093",
        "epoch_osculation": "2459000.5",
        "eccentricity": ".5582224177983817",
        "semi_major_axis": "2.641074726963345",
        "inclination": "18.26705901858801",
        "ascending_node_longitude": "126.4948921351647",
        "orbital_period": "1567.723472976936",
        "perihelion_distance": "1.166767607291666",
        "perihelion_argument": "343.0487670837086",
        "aphelion_distance": "4.115381846635024",
        "perihelion_time": "2458593.239664845308",
        "mean_anomaly": "93.52014126399835",
        "mean_motion": ".2296323338939356",
        "equinox": "J2000",
        "orbit_class": {
            "orbit_class_type": "AMO",
            "orbit_class_description": "Near-Earth asteroid orbits similar to that of 1221 Amor",
            "orbit_class_range": "1.017 AU < q (perihelion) < 1.3 AU"
        }
    },
    "is_sentry_object": false
}